{"type": "FeatureCollection", "features": [ {"type": "Feature", "properties": {"norad_id": 54031, "name": "COSMOS 2559 (707K)", "group": "gnss", "lat": 30.12110687978283, "lon": -23.128671932186915, "alt_km": 19153.699989574314, "timestamp": "2025-12-24T09:46:31.247677+00:00", "meta": {"OBJECT_NAME": "COSMOS 2559 (707K)", "OBJECT_ID": "2022-130A", "EPOCH": "2025-12-22T22:55:41.357856", "MEAN_MOTION": 2.13101293, "ECCENTRICITY": 0.00115202, "INCLINATION": 64.3764, "RA_OF_ASC_NODE": 320.7818, "ARG_OF_PERICENTER": 191.7582, "MEAN_ANOMALY": 168.2129, "EPHEMERIS_TYPE": 0, "CLASSIFICATION_TYPE": "U", "NORAD_CAT_ID": 54031, "ELEMENT_SET_NO": 999, "REV_AT_EPOCH": 2493, "BSTAR": 0, "MEAN_MOTION_DOT": -4e-07, "MEAN_MOTION_DDOT": 0}, "tle": {"line1": "1 54031U 22130A   25356.95533979 -.00000040  00000+0  00000+0 0  9995", "line2": "2 54031  64.3764 320.7818 0011520 191.7582 168.2129  2.13101293 24935"}}, "geometry": {"type": "Point", "coordinates": [-23.128671932186915, 30.12110687978283]}}, {"type": "Feature", "properties": {"norad_id": 54377, "name": "COSMOS 2564 (761)", "group": "gnss", "lat": 23.86792273952341, "lon": 6.450111763532222, "alt_km": 19113.341310486816, "timestamp": "2025-12-24T09:46:31.247688+00:00", "meta": {"OBJECT_NAME": "COSMOS 2564 (761)", "OBJECT_ID": "2022-161A", "EPOCH": "2025-12-22T19:11:15.319968", "MEAN_MOTION": 2.13102038, "ECCENTRICITY": 0.00085475, "INCLINATION": 64.7388, "RA_OF_ASC_NODE": 198.5646, "ARG_OF_PERICENTER": 203.7096, "MEAN_ANOMALY": 156.316, "EPHEMERIS_TYPE": 0, "CLASSIFICATION_TYPE": "U", "NORAD_CAT_ID": 54377, "ELEMENT_SET_NO": 999, "REV_AT_EPOCH": 2387, "BSTAR": 0, "MEAN_MOTION_DOT": 9.5e-07, "MEAN_MOTION_DDOT": 0}, "tle": {"line1": "1 54377U 22161A   25356.79948287  .00000095  00000+0  00000+0 0  9995", "line2": "2 54377  64.7388 198.5646 0008547 203.7096 156.3160  2.13102038 23876"}}, "geometry": {"type": "Point", "coordinates": [6.450111763532222, 23.86792273952341]}}, {"type": "Feature", "properties": {"norad_id": 55268, "name": "GPS BIII-6  (PRN 28)", "group": "gnss", "lat": -26.194356293265606, "lon": 135.29862591846103, "alt_km": 20177.748092189755, "timestamp": "2025-12-24T09:46:31.247699+00:00", "meta": {"OBJECT_NAME": "GPS BIII-6  (PRN 28)", "OBJECT_ID": "2023-009A", "EPOCH": "2025-12-22T10:59:58.065216", "MEAN_MOTION": 2.00554901, "ECCENTRICITY": 0.00037047, "INCLINATION": 55.1065, "RA_OF_ASC_NODE": 155.4638, "ARG_OF_PERICENTER": 355.7912, "MEAN_ANOMALY": 4.4255, "EPHEMERIS_TYPE": 0, "CLASSIFICATION_TYPE": "U", "NORAD_CAT_ID": 55268, "ELEMENT_SET_NO": 999, "REV_AT_EPOCH": 2170, "BSTAR": 0, "MEAN_MOTION_DOT": 7.4e-07, "MEAN_MOTION_DDOT": 0}, "tle": {"line1": "1 55268U 23009A   25356.45831094  .00000074  00000+0  00000+0 0  9994", "line2": "2 55268  55.1065 155.4638 0003704 355.7912   4.4255  2.00554901 21704"}}, "geometry": {"type": "Point", "coordinates": [135.29862591846103, -26.194356293265606]}}, {"type": "Feature", "properties": {"norad_id": 56564, "name": "BEIDOU-3 G4 (C62)", "group": "gnss", "lat": 0.7960188330763066, "lon": 39.83885791827528, "alt_km": 35793.36702416967, "timestamp": "2025-12-24T09:46:31.247711+00:00", "meta": {"OBJECT_NAME": "BEIDOU-3 G4 (C62)", "OBJECT_ID": "2023-066A", "EPOCH": "2025-12-24T03:53:38.743008", "MEAN_MOTION": 1.00271029, "ECCENTRICITY": 0.0002607, "INCLINATION": 0.7914, "RA_OF_ASC_NODE": 302.9279, "ARG_OF_PERICENTER": 227.9578, "MEAN_ANOMALY": 140.5236, "EPHEMERIS_TYPE": 0, "CLASSIFICATION_TYPE": "U", "NORAD_CAT_ID": 56564, "ELEMENT_SET_NO": 999, "REV_AT_EPOCH": 964, "BSTAR": 0, "MEAN_MOTION_DOT": -9e-07, "MEAN_MOTION_DDOT": 0}, "tle": {"line1": "1 56564U 23066A   25358.16225397 -.00000090  00000+0  00000+0 0  9999", "line2": "2 56564   0.7914 302.9279 0002607 227.9578 140.5236  1.00271029  9648"}}, "geometry": {"type": "Point", "coordinates": [39.83885791827528, 0.7960188330763066]}}, {"type": "Feature", "properties": {"norad_id": 56759, "name": "NVS-01 (IRNSS-1J)", "group": "gnss", "lat": 2.283390103694116, "lon": 9.494881494159236, "alt_km": 35793.10860583895, "timestamp": "2025-12-24T09:46:31.247722+00:00", "meta": {"OBJECT_NAME": "NVS-01 (IRNSS-1J)", "OBJECT_ID": "2023-076A", "EPOCH": "2025-12-24T00:01:11.875296", "MEAN_MOTION": 1.00271708, "ECCENTRICITY": 0.0008843, "INCLINATION": 2.5921, "RA_OF_ASC_NODE": 251.2019, "ARG_OF_PERICENTER": 16.9955, "MEAN_ANOMALY": 314.4498, "EPHEMERIS_TYPE": 0, "CLASSIFICATION_TYPE": "U", "NORAD_CAT_ID": 56759, "ELEMENT_SET_NO": 999, "REV_AT_EPOCH": 935, "BSTAR": 0, "MEAN_MOTION_DOT": -3.13e-06, "MEAN_MOTION_DDOT": 0}, "tle": {"line1": "1 56759U 23076A   25358.00083189 -.00000313  00000+0  00000+0 0  9998", "line2": "2 56759   2.5921 251.2019 0008843  16.9955 314.4498  1.00271708  9357"}}, "geometry": {"type": "Point", "coordinates": [9.494881494159236, 2.283390103694116]}}, {"type": "Feature", "properties": {"norad_id": 57517, "name": "COSMOS 2569 (703K)", "group": "gnss", "lat": 33.03861752744898, "lon": -118.93953429750728, "alt_km": 19148.499945990938, "timestamp": "2025-12-24T09:46:31.247734+00:00", "meta": {"OBJECT_NAME": "COSMOS 2569 (703K)", "OBJECT_ID": "2023-114A", "EPOCH": "2025-12-23T18:01:56.220096", "MEAN_MOTION": 2.13103974, "ECCENTRICITY": 0.0010936, "INCLINATION": 65.1997, "RA_OF_ASC_NODE": 78.5414, "ARG_OF_PERICENTER": 287.1018, "MEAN_ANOMALY": 72.827, "EPHEMERIS_TYPE": 0, "CLASSIFICATION_TYPE": "U", "NORAD_CAT_ID": 57517, "ELEMENT_SET_NO": 999, "REV_AT_EPOCH": 1852, "BSTAR": 0, "MEAN_MOTION_DOT": 1e-08, "MEAN_MOTION_DDOT": 0}, "tle": {"line1": "1 57517U 23114A   25357.75134514  .00000001  00000+0  00000+0 0  9997", "line2": "2 57517  65.1997  78.5414 0010936 287.1018  72.8270  2.13103974 18521"}}, "geometry": {"type": "Point", "coordinates": [-118.93953429750728, 33.03861752744898]}}, {"type": "Feature", "properties": {"norad_id": 58654, "name": "BEIDOU-3 M28 (C50)", "group": "gnss", "lat": 52.96205383306411, "lon": -176.8727362612955, "alt_km": 21529.77468612334, "timestamp": "2025-12-24T09:46:31.247745+00:00", "meta": {"OBJECT_NAME": "BEIDOU-3 M28 (C50)", "OBJECT_ID": "2023-207A", "EPOCH": "2025-12-23T04:15:12.326400", "MEAN_MOTION": 1.86229739, "ECCENTRICITY": 0.00028337, "INCLINATION": 55.5933, "RA_OF_ASC_NODE": 68.248, "ARG_OF_PERICENTER": 274.486, "MEAN_ANOMALY": 85.5342, "EPHEMERIS_TYPE": 0, "CLASSIFICATION_TYPE": "U", "NORAD_CAT_ID": 58654, "ELEMENT_SET_NO": 999, "REV_AT_EPOCH": 1356, "BSTAR": 0, "MEAN_MOTION_DOT": -2.8e-07, "MEAN_MOTION_DDOT": 0}, "tle": {"line1": "1 58654U 23207A   25357.17722600 -.00000028  00000+0  00000+0 0  9998", "line2": "2 58654  55.5933  68.2480 0002833 274.4860  85.5342  1.86229739 13564"}}, "geometry": {"type": "Point", "coordinates": [-176.8727362612955, 52.96205383306411]}}, {"type": "Feature", "properties": {"norad_id": 58655, "name": "BEIDOU-3 M26 (C48)", "group": "gnss", "lat": -45.85662368349456, "lon": -66.94638017341381, "alt_km": 21522.300755893288, "timestamp": "2025-12-24T09:46:31.247758+00:00", "meta": {"OBJECT_NAME": "BEIDOU-3 M26 (C48)", "OBJECT_ID": "2023-207B", "EPOCH": "2025-12-22T23:23:41.171712", "MEAN_MOTION": 1.86231234, "ECCENTRICITY": 0.00041871, "INCLINATION": 55.5951, "RA_OF_ASC_NODE": 68.241, "ARG_OF_PERICENTER": 260.4893, "MEAN_ANOMALY": 99.5155, "EPHEMERIS_TYPE": 0, "CLASSIFICATION_TYPE": "U", "NORAD_CAT_ID": 58655, "ELEMENT_SET_NO": 999, "REV_AT_EPOCH": 1354, "BSTAR": 0, "MEAN_MOTION_DOT": -2.8e-07, "MEAN_MOTION_DDOT": 0}, "tle": {"line1": "1 58655U 23207B   25356.97478208 -.00000028  00000+0  00000+0 0  9998", "line2": "2 58655  55.5951  68.2410 0004187 260.4893  99.5155  1.86231234 13541"}}, "geometry": {"type": "Point", "coordinates": [-66.94638017341381, -45.85662368349456]}}, {"type": "Feature", "properties": {"norad_id": 59598, "name": "GSAT0225 (GALILEO 29)", "group": "gnss", "lat": -44.540981943519725, "lon": -30.533718887122756, "alt_km": 23223.00514565317, "timestamp": "2025-12-24T09:46:31.247772+00:00", "meta": {"OBJECT_NAME": "GSAT0225 (GALILEO 29)", "OBJECT_ID": "2024-079A", "EPOCH": "2025-12-22T20:21:50.564160", "MEAN_MOTION": 1.70474954, "ECCENTRICITY": 0.0002219, "INCLINATION": 55.0069, "RA_OF_ASC_NODE": 106.0132, "ARG_OF_PERICENTER": 188.6953, "MEAN_ANOMALY": 173.4251, "EPHEMERIS_TYPE": 0, "CLASSIFICATION_TYPE": "U", "NORAD_CAT_ID": 59598, "ELEMENT_SET_NO": 999, "REV_AT_EPOCH": 1031, "BSTAR": 0, "MEAN_MOTION_DOT": 8e-08, "MEAN_MOTION_DDOT": 0}, "tle": {"line1": "1 59598U 24079A   25356.84850190  .00000008  00000+0  00000+0 0  9990", "line2": "2 59598  55.0069 106.0132 0002219 188.6953 173.4251  1.70474954 10319"}}, "geometry": {"type": "Point", "coordinates": [-30.533718887122756, -44.540981943519725]}}, {"type": "Feature", "properties": {"norad_id": 59600, "name": "GSAT0227 (GALILEO 30)", "group": "gnss", "lat": 41.32428774570717, "lon": -111.99048406185935, "alt_km": 23208.79878233367, "timestamp": "2025-12-24T09:46:31.247783+00:00", "meta": {"OBJECT_NAME": "GSAT0227 (GALILEO 30)", "OBJECT_ID": "2024-079C", "EPOCH": "2025-12-21T20:31:35.455872", "MEAN_MOTION": 1.70474868, "ECCENTRICITY": 0.00028355, "INCLINATION": 55.0019, "RA_OF_ASC_NODE": 106.0394, "ARG_OF_PERICENTER": 117.3615, "MEAN_ANOMALY": 242.6419, "EPHEMERIS_TYPE": 0, "CLASSIFICATION_TYPE": "U", "NORAD_CAT_ID": 59600, "ELEMENT_SET_NO": 999, "REV_AT_EPOCH": 1034, "BSTAR": 0, "MEAN_MOTION_DOT": 4e-08, "MEAN_MOTION_DDOT": 0}, "tle": {"line1": "1 59600U 24079C   25355.85527148  .00000004  00000+0  00000+0 0  9994", "line2": "2 59600  55.0019 106.0394 0002835 117.3615 242.6419  1.70474868 10348"}}, "geometry": {"type": "Point", "coordinates": [-111.99048406185935, 41.32428774570717]}}]}